{"type": "FeatureCollection", "features": [ {"type": "Feature", "properties": {"norad_id": 66619, "name": "STARLINK-35951", "group": "last-30-days", "lat": -32.57931681247059, "lon": 18.46309799817611, "alt_km": 422.98111494162004, "timestamp": "2025-12-16T08:59:41.907399+00:00", "meta": {"OBJECT_NAME": "STARLINK-35951", "OBJECT_ID": "2025-271C", "EPOCH": "2025-12-15T22:00:01.999584", "MEAN_MOTION": 15.49256708, "ECCENTRICITY": 5.002e-05, "INCLINATION": 53.1591, "RA_OF_ASC_NODE": 172.0274, "ARG_OF_PERICENTER": 70.0764, "MEAN_ANOMALY": 115.6512, "EPHEMERIS_TYPE": 0, "CLASSIFICATION_TYPE": "U", "NORAD_CAT_ID": 66619, "ELEMENT_SET_NO": 999, "REV_AT_EPOCH": 475, "BSTAR": 0.0014214401, "MEAN_MOTION_DOT": 0.00079266, "MEAN_MOTION_DDOT": 0}, "tle": {"line1": "1 66619U 25271C   25349.91668981  .00079266  00000+0  14214-2 0  9999", "line2": "2 66619  53.1591 172.0274 0000500  70.0764 115.6512 15.49256708  4750"}}, "geometry": {"type": "Point", "coordinates": [18.46309799817611, -32.57931681247059]}}, {"type": "Feature", "properties": {"norad_id": 66620, "name": "STARLINK-35936", "group": "last-30-days", "lat": -28.46266270633394, "lon": 13.83148173092375, "alt_km": 423.01820833091733, "timestamp": "2025-12-16T08:59:41.907410+00:00", "meta": {"OBJECT_NAME": "STARLINK-35936", "OBJECT_ID": "2025-271D", "EPOCH": "2025-12-15T22:00:01.999584", "MEAN_MOTION": 15.49257406, "ECCENTRICITY": 0.00010297, "INCLINATION": 53.1591, "RA_OF_ASC_NODE": 172.0407, "ARG_OF_PERICENTER": 67.3574, "MEAN_ANOMALY": 112.6206, "EPHEMERIS_TYPE": 0, "CLASSIFICATION_TYPE": "U", "NORAD_CAT_ID": 66620, "ELEMENT_SET_NO": 999, "REV_AT_EPOCH": 475, "BSTAR": 0.0014054769, "MEAN_MOTION_DOT": 0.00078363, "MEAN_MOTION_DDOT": 0}, "tle": {"line1": "1 66620U 25271D   25349.91668981  .00078363  00000+0  14055-2 0  9991", "line2": "2 66620  53.1591 172.0407 0001029  67.3574 112.6206 15.49257406  4758"}}, "geometry": {"type": "Point", "coordinates": [13.83148173092375, -28.46266270633394]}}, {"type": "Feature", "properties": {"norad_id": 66621, "name": "STARLINK-35847", "group": "last-30-days", "lat": -53.116281958333055, "lon": 82.07422300822094, "alt_km": 423.9908773292791, "timestamp": "2025-12-16T08:59:41.907422+00:00", "meta": {"OBJECT_NAME": "STARLINK-35847", "OBJECT_ID": "2025-271E", "EPOCH": "2025-12-15T22:00:01.999584", "MEAN_MOTION": 15.49254217, "ECCENTRICITY": 7.699e-05, "INCLINATION": 53.1589, "RA_OF_ASC_NODE": 171.9243, "ARG_OF_PERICENTER": 65.4727, "MEAN_ANOMALY": 169.4523, "EPHEMERIS_TYPE": 0, "CLASSIFICATION_TYPE": "U", "NORAD_CAT_ID": 66621, "ELEMENT_SET_NO": 999, "REV_AT_EPOCH": 475, "BSTAR": 0.001433731, "MEAN_MOTION_DOT": 0.00079955, "MEAN_MOTION_DDOT": 0}, "tle": {"line1": "1 66621U 25271E   25349.91668981  .00079955  00000+0  14337-2 0  9993", "line2": "2 66621  53.1589 171.9243 0000769  65.4727 169.4523 15.49254217  4750"}}, "geometry": {"type": "Point", "coordinates": [82.07422300822094, -53.116281958333055]}}, {"type": "Feature", "properties": {"norad_id": 66622, "name": "STARLINK-35950", "group": "last-30-days", "lat": -33.92805012799423, "lon": 20.121142402091532, "alt_km": 423.2826280957888, "timestamp": "2025-12-16T08:59:41.907433+00:00", "meta": {"OBJECT_NAME": "STARLINK-35950", "OBJECT_ID": "2025-271F", "EPOCH": "2025-12-15T22:00:01.999584", "MEAN_MOTION": 15.49301549, "ECCENTRICITY": 9.027e-05, "INCLINATION": 53.1591, "RA_OF_ASC_NODE": 172.0246, "ARG_OF_PERICENTER": 75.7304, "MEAN_ANOMALY": 111.8975, "EPHEMERIS_TYPE": 0, "CLASSIFICATION_TYPE": "U", "NORAD_CAT_ID": 66622, "ELEMENT_SET_NO": 999, "REV_AT_EPOCH": 475, "BSTAR": 0.00049635791, "MEAN_MOTION_DOT": 0.00027246, "MEAN_MOTION_DDOT": 0}, "tle": {"line1": "1 66622U 25271F   25349.91668981  .00027246  00000+0  49636-3 0  9991", "line2": "2 66622  53.1591 172.0246 0000902  75.7304 111.8975 15.49301549  4756"}}, "geometry": {"type": "Point", "coordinates": [20.121142402091532, -33.92805012799423]}}, {"type": "Feature", "properties": {"norad_id": 66623, "name": "STARLINK-35920", "group": "last-30-days", "lat": -24.429958612584805, "lon": 9.770124148679674, "alt_km": 441.892702772956, "timestamp": "2025-12-16T08:59:41.907443+00:00", "meta": {"OBJECT_NAME": "STARLINK-35920", "OBJECT_ID": "2025-271G", "EPOCH": "2025-12-15T22:00:01.999584", "MEAN_MOTION": 15.4485049, "ECCENTRICITY": 0.00015694, "INCLINATION": 53.1597, "RA_OF_ASC_NODE": 172.0318, "ARG_OF_PERICENTER": 77.1558, "MEAN_ANOMALY": 106.3995, "EPHEMERIS_TYPE": 0, "CLASSIFICATION_TYPE": "U", "NORAD_CAT_ID": 66623, "ELEMENT_SET_NO": 999, "REV_AT_EPOCH": 475, "BSTAR": -0.047911193, "MEAN_MOTION_DOT": -0.02032888, "MEAN_MOTION_DDOT": 0}, "tle": {"line1": "1 66623U 25271G   25349.91668981 -.02032888  00000+0 -47911-1 0  9996", "line2": "2 66623  53.1597 172.0318 0001569  77.1558 106.3995 15.44850490  4750"}}, "geometry": {"type": "Point", "coordinates": [9.770124148679674, -24.429958612584805]}}, {"type": "Feature", "properties": {"norad_id": 66624, "name": "STARLINK-35927", "group": "last-30-days", "lat": -35.227162391261494, "lon": 21.795853238170988, "alt_km": 423.329770975407, "timestamp": "2025-12-16T08:59:41.907456+00:00", "meta": {"OBJECT_NAME": "STARLINK-35927", "OBJECT_ID": "2025-271H", "EPOCH": "2025-12-15T22:00:01.999584", "MEAN_MOTION": 15.49256303, "ECCENTRICITY": 8.62e-05, "INCLINATION": 53.1591, "RA_OF_ASC_NODE": 172.0206, "ARG_OF_PERICENTER": 76.8884, "MEAN_ANOMALY": 112.6749, "EPHEMERIS_TYPE": 0, "CLASSIFICATION_TYPE": "U", "NORAD_CAT_ID": 66624, "ELEMENT_SET_NO": 999, "REV_AT_EPOCH": 475, "BSTAR": 0.0014195786, "MEAN_MOTION_DOT": 0.00079159, "MEAN_MOTION_DDOT": 0}, "tle": {"line1": "1 66624U 25271H   25349.91668981  .00079159  00000+0  14196-2 0  9995", "line2": "2 66624  53.1591 172.0206 0000862  76.8884 112.6749 15.49256303  4759"}}, "geometry": {"type": "Point", "coordinates": [21.795853238170988, -35.227162391261494]}}, {"type": "Feature", "properties": {"norad_id": 66625, "name": "STARLINK-35929", "group": "last-30-days", "lat": -37.773584947021725, "lon": 25.34212231698269, "alt_km": 423.65249714847687, "timestamp": "2025-12-16T08:59:41.907494+00:00", "meta": {"OBJECT_NAME": "STARLINK-35929", "OBJECT_ID": "2025-271J", "EPOCH": "2025-12-15T22:00:01.999584", "MEAN_MOTION": 15.49255345, "ECCENTRICITY": 0.00011369, "INCLINATION": 53.1591, "RA_OF_ASC_NODE": 172.0116, "ARG_OF_PERICENTER": 75.8368, "MEAN_ANOMALY": 117.5592, "EPHEMERIS_TYPE": 0, "CLASSIFICATION_TYPE": "U", "NORAD_CAT_ID": 66625, "ELEMENT_SET_NO": 999, "REV_AT_EPOCH": 475, "BSTAR": 0.0014312864, "MEAN_MOTION_DOT": 0.0007982, "MEAN_MOTION_DDOT": 0}, "tle": {"line1": "1 66625U 25271J   25349.91668981  .00079820  00000+0  14313-2 0  9992", "line2": "2 66625  53.1591 172.0116 0001136  75.8368 117.5592 15.49255345  4756"}}, "geometry": {"type": "Point", "coordinates": [25.34212231698269, -37.773584947021725]}}, {"type": "Feature", "properties": {"norad_id": 66626, "name": "STARLINK-35902", "group": "last-30-days", "lat": -35.479836757083135, "lon": 22.13061663352849, "alt_km": 434.25172549114995, "timestamp": "2025-12-16T08:59:41.907507+00:00", "meta": {"OBJECT_NAME": "STARLINK-35902", "OBJECT_ID": "2025-271K", "EPOCH": "2025-12-15T22:00:01.999584", "MEAN_MOTION": 15.4767313, "ECCENTRICITY": 0.00013569, "INCLINATION": 53.159, "RA_OF_ASC_NODE": 172.0103, "ARG_OF_PERICENTER": 73.9682, "MEAN_ANOMALY": 120.2849, "EPHEMERIS_TYPE": 0, "CLASSIFICATION_TYPE": "U", "NORAD_CAT_ID": 66626, "ELEMENT_SET_NO": 999, "REV_AT_EPOCH": 475, "BSTAR": -0.042369082, "MEAN_MOTION_DOT": -0.01988274, "MEAN_MOTION_DDOT": 0}, "tle": {"line1": "1 66626U 25271K   25349.91668981 -.01988274  00000+0 -42369-1 0  9999", "line2": "2 66626  53.1590 172.0103 0001356  73.9682 120.2849 15.47673130  4754"}}, "geometry": {"type": "Point", "coordinates": [22.13061663352849, -35.479836757083135]}}, {"type": "Feature", "properties": {"norad_id": 66627, "name": "STARLINK-35904", "group": "last-30-days", "lat": -40.20534789737101, "lon": 29.136885882121707, "alt_km": 423.62900009833174, "timestamp": "2025-12-16T08:59:41.907523+00:00", "meta": {"OBJECT_NAME": "STARLINK-35904", "OBJECT_ID": "2025-271L", "EPOCH": "2025-12-15T22:00:01.999584", "MEAN_MOTION": 15.49256991, "ECCENTRICITY": 8.5e-05, "INCLINATION": 53.159, "RA_OF_ASC_NODE": 172.0038, "ARG_OF_PERICENTER": 68.9376, "MEAN_ANOMALY": 128.2915, "EPHEMERIS_TYPE": 0, "CLASSIFICATION_TYPE": "U", "NORAD_CAT_ID": 66627, "ELEMENT_SET_NO": 999, "REV_AT_EPOCH": 459, "BSTAR": 0.0014187127, "MEAN_MOTION_DOT": 0.00079112, "MEAN_MOTION_DDOT": 0}, "tle": {"line1": "1 66627U 25271L   25349.91668981  .00079112  00000+0  14187-2 0  9997", "line2": "2 66627  53.1590 172.0038 0000850  68.9376 128.2915 15.49256991  4592"}}, "geometry": {"type": "Point", "coordinates": [29.136885882121707, -40.20534789737101]}}, {"type": "Feature", "properties": {"norad_id": 66628, "name": "STARLINK-35862", "group": "last-30-days", "lat": -41.37151351572941, "lon": 31.133811039800218, "alt_km": 423.675348410502, "timestamp": "2025-12-16T08:59:41.907533+00:00", "meta": {"OBJECT_NAME": "STARLINK-35862", "OBJECT_ID": "2025-271M", "EPOCH": "2025-12-15T22:00:01.999584", "MEAN_MOTION": 15.49256559, "ECCENTRICITY": 8.442e-05, "INCLINATION": 53.159, "RA_OF_ASC_NODE": 171.9998, "ARG_OF_PERICENTER": 70.451, "MEAN_ANOMALY": 128.6928, "EPHEMERIS_TYPE": 0, "CLASSIFICATION_TYPE": "U", "NORAD_CAT_ID": 66628, "ELEMENT_SET_NO": 999, "REV_AT_EPOCH": 475, "BSTAR": 0.0014344834, "MEAN_MOTION_DOT": 0.00080004, "MEAN_MOTION_DDOT": 0}, "tle": {"line1": "1 66628U 25271M   25349.91668981  .00080004  00000+0  14345-2 0  9996", "line2": "2 66628  53.1590 171.9998 0000844  70.4510 128.6928 15.49256559  4753"}}, "geometry": {"type": "Point", "coordinates": [31.133811039800218, -41.37151351572941]}}]}